{
  "norad_id": 52788,
  "name": "GEESAT-1 04",
  "history": [
    {
      "epoch": "2026-03-28T19:49:53.674752Z",
      "apogee_km": 632.9823073955195,
      "perigee_km": 618.7855771867526,
      "latitude_deg": 2.8617239351252292e-05,
      "longitude_deg": 90.2971892835047,
      "height_km": 633.0489507625143,
      "semi_major_axis_km": 7004.020942291136,
      "eccentricity": 0.00101347,
      "inclination_deg": 50.0029,
      "raan_deg": 214.012,
      "arg_perigee_deg": 201.1917,
      "mean_anomaly_deg": 158.8602,
      "mean_motion_rev_day": 14.8109054
    },
    {
      "epoch": "2026-03-29T03:55:40.406304Z",
      "apogee_km": 632.9765705781047,
      "perigee_km": 618.7696364841031,
      "latitude_deg": 2.1241376867557634e-05,
      "longitude_deg": -33.037035470126504,
      "height_km": 632.9802743189998,
      "semi_major_axis_km": 7004.010103531104,
      "eccentricity": 0.0010142,
      "inclination_deg": 50.003,
      "raan_deg": 212.455,
      "arg_perigee_deg": 202.5504,
      "mean_anomaly_deg": 157.4989,
      "mean_motion_rev_day": 14.81093978
    },
    {
      "epoch": "2026-03-30T04:13:00.429888Z",
      "apogee_km": 632.9421260105601,
      "perigee_km": 618.7667477414661,
      "latitude_deg": -4.0707832538611715e-05,
      "longitude_deg": -43.038427627286254,
      "height_km": 632.7495170910544,
      "semi_major_axis_km": 7003.991436876013,
      "eccentricity": 0.00101195,
      "inclination_deg": 50.0029,
      "raan_deg": 207.7846,
      "arg_perigee_deg": 206.4111,
      "mean_anomaly_deg": 153.6311,
      "mean_motion_rev_day": 14.81099899
    },
    {
      "epoch": "2026-03-30T13:55:56.288640Z",
      "apogee_km": 632.941262649334,
      "perigee_km": 618.7475542454877,
      "latitude_deg": -2.078123401324635e-05,
      "longitude_deg": 168.9615425913558,
      "height_km": 632.6548660673728,
      "semi_major_axis_km": 7003.981408447411,
      "eccentricity": 0.00101326,
      "inclination_deg": 50.003,
      "raan_deg": 205.9163,
      "arg_perigee_deg": 208.0516,
      "mean_anomaly_deg": 151.9876,
      "mean_motion_rev_day": 14.8110308
    },
    {
      "epoch": "2026-03-30T17:10:14.899008Z",
      "apogee_km": 632.9325295360222,
      "perigee_km": 618.7498938959898,
      "latitude_deg": -1.947239755609868e-05,
      "longitude_deg": 119.62830005216794,
      "height_km": 632.6190811094242,
      "semi_major_axis_km": 7003.978211716006,
      "eccentricity": 0.00101247,
      "inclination_deg": 50.003,
      "raan_deg": 205.2936,
      "arg_perigee_deg": 208.5245,
      "mean_anomaly_deg": 151.5139,
      "mean_motion_rev_day": 14.81104094
    },
    {
      "epoch": "2026-03-31T17:27:34.284096Z",
      "apogee_km": 632.9180385727432,
      "perigee_km": 618.723817435849,
      "latitude_deg": -1.9586740215979818e-05,
      "longitude_deg": 109.6295279002452,
      "height_km": 632.3578369915289,
      "semi_major_axis_km": 7003.957928004295,
      "eccentricity": 0.0010133,
      "inclination_deg": 50.0033,
      "raan_deg": 200.6231,
      "arg_perigee_deg": 212.4456,
      "mean_anomaly_deg": 147.5859,
      "mean_motion_rev_day": 14.81110528
    },
    {
      "epoch": "2026-04-01T19:22:02.526816Z",
      "apogee_km": 632.9101341744581,
      "perigee_km": 618.6977372277333,
      "latitude_deg": -3.328606817820015e-05,
      "longitude_deg": 74.96594245163291,
      "height_km": 632.054547024312,
      "semi_major_axis_km": 7003.940935701095,
      "eccentricity": 0.0010146,
      "inclination_deg": 50.0034,
      "raan_deg": 195.6412,
      "arg_perigee_deg": 216.6305,
      "mean_anomaly_deg": 143.3939,
      "mean_motion_rev_day": 14.81115918
    },
    {
      "epoch": "2026-04-02T18:02:11.873184Z",
      "apogee_km": 632.888391141877,
      "perigee_km": 618.6760382713956,
      "latitude_deg": 1.3398479954351443e-06,
      "longitude_deg": 89.63683536291066,
      "height_km": 631.7546427652466,
      "semi_major_axis_km": 7003.919214706636,
      "eccentricity": 0.0010146,
      "inclination_deg": 50.0034,
      "raan_deg": 191.282,
      "arg_perigee_deg": 220.2409,
      "mean_anomaly_deg": 139.7778,
      "mean_motion_rev_day": 14.81122808
    },
    {
      "epoch": "2026-04-02T18:02:11.874048Z",
      "apogee_km": 632.888251063494,
      "perigee_km": 618.6761783497795,
      "latitude_deg": 1.978685073972155e-07,
      "longitude_deg": 89.63683080013276,
      "height_km": 631.754535844231,
      "semi_major_axis_km": 7003.919214706636,
      "eccentricity": 0.00101458,
      "inclination_deg": 50.0034,
      "raan_deg": 191.282,
      "arg_perigee_deg": 220.2409,
      "mean_anomaly_deg": 139.7778,
      "mean_motion_rev_day": 14.81122808
    },
    {
      "epoch": "2026-04-03T15:05:11.581728Z",
      "apogee_km": 632.8603772076158,
      "perigee_km": 618.6424836938013,
      "latitude_deg": -1.2071363327505224e-05,
      "longitude_deg": 128.97564924141952,
      "height_km": 631.4433941232302,
      "semi_major_axis_km": 7003.888430450708,
      "eccentricity": 0.001015,
      "inclination_deg": 50.0032,
      "raan_deg": 187.2341,
      "arg_perigee_deg": 223.6497,
      "mean_anomaly_deg": 136.3638,
      "mean_motion_rev_day": 14.81132573
    },
    {
      "epoch": "2026-04-04T05:39:34.200864Z",
      "apogee_km": 632.8514548749836,
      "perigee_km": 618.6187463019351,
      "latitude_deg": -4.291168862801036e-05,
      "longitude_deg": -93.01951292587242,
      "height_km": 631.2213731079837,
      "semi_major_axis_km": 7003.872100588459,
      "eccentricity": 0.00101606,
      "inclination_deg": 50.0031,
      "raan_deg": 184.4317,
      "arg_perigee_deg": 226.0596,
      "mean_anomaly_deg": 133.9503,
      "mean_motion_rev_day": 14.81137753
    },
    {
      "epoch": "2026-04-05T14:02:37.314240Z",
      "apogee_km": 632.8349872552863,
      "perigee_km": 618.5860796792986,
      "latitude_deg": -4.896796548307582e-06,
      "longitude_deg": 133.65997286161766,
      "height_km": 630.7127396012442,
      "semi_major_axis_km": 7003.847533467292,
      "eccentricity": 0.00101722,
      "inclination_deg": 50.0028,
      "raan_deg": 178.2041,
      "arg_perigee_deg": 231.3053,
      "mean_anomaly_deg": 128.6975,
      "mean_motion_rev_day": 14.81145546
    },
    {
      "epoch": "2026-04-05T17:16:55.585920Z",
      "apogee_km": 632.8286028255006,
      "perigee_km": 618.5855854756364,
      "latitude_deg": 7.022061048149045e-05,
      "longitude_deg": 84.32800657952862,
      "height_km": 630.6508625972865,
      "semi_major_axis_km": 7003.844094150569,
      "eccentricity": 0.0010168,
      "inclination_deg": 50.0027,
      "raan_deg": 177.5812,
      "arg_perigee_deg": 231.8863,
      "mean_anomaly_deg": 128.1159,
      "mean_motion_rev_day": 14.81146637
    },
    {
      "epoch": "2026-04-06T06:14:08.655360Z",
      "apogee_km": 632.82678153303,
      "perigee_km": 618.5745322083112,
      "latitude_deg": -4.08388710204606e-05,
      "longitude_deg": -112.99972993921872,
      "height_km": 630.445832046785,
      "semi_major_axis_km": 7003.837656870671,
      "eccentricity": 0.00101746,
      "inclination_deg": 50.0029,
      "raan_deg": 175.09,
      "arg_perigee_deg": 233.9174,
      "mean_anomaly_deg": 126.0821,
      "mean_motion_rev_day": 14.81148679
    },
    {
      "epoch": "2026-04-07T14:37:10.970400Z",
      "apogee_km": 632.8136921860869,
      "perigee_km": 618.5527935603586,
      "latitude_deg": 1.0444705637666036e-05,
      "longitude_deg": 113.68320057980578,
      "height_km": 629.895382453605,
      "semi_major_axis_km": 7003.820242873223,
      "eccentricity": 0.00101808,
      "inclination_deg": 50.0027,
      "raan_deg": 168.8625,
      "arg_perigee_deg": 239.08,
      "mean_anomaly_deg": 120.9137,
      "mean_motion_rev_day": 14.81154203
    },
    {
      "epoch": "2026-04-07T16:14:20.074272Z",
      "apogee_km": 632.8150340553166,
      "perigee_km": 618.5496548145711,
      "latitude_deg": -3.15318607808926e-05,
      "longitude_deg": 89.01733455674582,
      "height_km": 629.8634484325347,
      "semi_major_axis_km": 7003.819344434944,
      "eccentricity": 0.0010184,
      "inclination_deg": 50.0027,
      "raan_deg": 168.5511,
      "arg_perigee_deg": 239.3809,
      "mean_anomaly_deg": 120.6124,
      "mean_motion_rev_day": 14.81154488
    },
    {
      "epoch": "2026-04-08T13:17:18.358944Z",
      "apogee_km": 632.8144666691178,
      "perigee_km": 618.5331361401895,
      "latitude_deg": 1.3992363285612194e-06,
      "longitude_deg": 128.3619333655304,
      "height_km": 629.4913390308983,
      "semi_major_axis_km": 7003.810801404654,
      "eccentricity": 0.00101954,
      "inclination_deg": 50.0027,
      "raan_deg": 164.503,
      "arg_perigee_deg": 242.7518,
      "mean_anomaly_deg": 117.2381,
      "mean_motion_rev_day": 14.81157198
    },
    {
      "epoch": "2026-04-09T15:11:43.824768Z",
      "apogee_km": 632.809942887433,
      "perigee_km": 618.5081913184094,
      "latitude_deg": 2.4277492064100693e-05,
      "longitude_deg": 93.70957591978357,
      "height_km": 629.0166610339317,
      "semi_major_axis_km": 7003.796067102921,
      "eccentricity": 0.001021,
      "inclination_deg": 50.0039,
      "raan_deg": 159.5207,
      "arg_perigee_deg": 246.8676,
      "mean_anomaly_deg": 113.1186,
      "mean_motion_rev_day": 14.81161872
    },
    {
      "epoch": "2026-04-10T05:46:05.469312Z",
      "apogee_km": 632.8085821175891,
      "perigee_km": 618.4954987587698,
      "latitude_deg": -1.1770755313933881e-05,
      "longitude_deg": -128.28162006269358,
      "height_km": 628.7446503515857,
      "semi_major_axis_km": 7003.78904043818,
      "eccentricity": 0.00102181,
      "inclination_deg": 50.0038,
      "raan_deg": 156.7182,
      "arg_perigee_deg": 249.1745,
      "mean_anomaly_deg": 110.8098,
      "mean_motion_rev_day": 14.81164101
    },
    {
      "epoch": "2026-04-11T20:37:42.991104Z",
      "apogee_km": 632.8077808359694,
      "perigee_km": 618.4752484835699,
      "latitude_deg": -1.5543625770907233e-05,
      "longitude_deg": -0.2575080128031858,
      "height_km": 628.0047902722097,
      "semi_major_axis_km": 7003.77851465977,
      "eccentricity": 0.0010232,
      "inclination_deg": 50.0035,
      "raan_deg": 149.2446,
      "arg_perigee_deg": 255.3285,
      "mean_anomaly_deg": 104.6518,
      "mean_motion_rev_day": 14.8116744
    },
    {
      "epoch": "2026-04-13T05:00:44.043840Z",
      "apogee_km": 632.8044023488546,
      "perigee_km": 618.4601225977685,
      "latitude_deg": -4.563218670111873e-06,
      "longitude_deg": -133.56993410817807,
      "height_km": 627.3651940552944,
      "semi_major_axis_km": 7003.769262473312,
      "eccentricity": 0.00102404,
      "inclination_deg": 50.0034,
      "raan_deg": 143.0165,
      "arg_perigee_deg": 260.492,
      "mean_anomaly_deg": 99.486,
      "mean_motion_rev_day": 14.81170375
    }
  ]
}